[{"OBJECT_NAME":"APRIZESAT 2","OBJECT_ID":"2004-025A","EPOCH":"2026-03-09T10:28:26.148000","MEAN_MOTION":14.37988294,"ECCENTRICITY":0.01054712,"INCLINATION":98.091,"RA_OF_ASC_NODE":240.1116,"ARG_OF_PERICENTER":190.5785,"MEAN_ANOMALY":169.3185,"EPHEMERIS_TYPE":0,"CLASSIFICATION_TYPE":"U","NORAD_CAT_ID":28366,"ELEMENT_SET_NO":999,"REV_AT_EPOCH":13730,"BSTAR":0.00014374466,"MEAN_MOTION_DOT":4.21e-6,"MEAN_MOTION_DDOT":0},{"OBJECT_NAME":"NOAA 16 DEB","OBJECT_ID":"2000-055QA","EPOCH":"2026-03-09T13:53:03.720192","MEAN_MOTION":14.3832686,"ECCENTRICITY":0.0014393,"INCLINATION":98.8393,"RA_OF_ASC_NODE":194.8459,"ARG_OF_PERICENTER":139.0039,"MEAN_ANOMALY":221.2232,"EPHEMERIS_TYPE":0,"CLASSIFICATION_TYPE":"U","NORAD_CAT_ID":42334,"ELEMENT_SET_NO":999,"REV_AT_EPOCH":49752,"BSTAR":0.0023118,"MEAN_MOTION_DOT":7.007e-5,"MEAN_MOTION_DDOT":0}]
